[{"OBJECT_NAME":"STARLINK-35798","OBJECT_ID":"2025-247AD","EPOCH":"2025-12-04T12:55:32.683872","MEAN_MOTION":15.39631668,"ECCENTRICITY":0.0002114,"INCLINATION":53.1605,"RA_OF_ASC_NODE":275.6708,"ARG_OF_PERICENTER":82.3294,"MEAN_ANOMALY":277.795,"EPHEMERIS_TYPE":0,"CLASSIFICATION_TYPE":"U","NORAD_CAT_ID":66292,"ELEMENT_SET_NO":999,"REV_AT_EPOCH":643,"BSTAR":0.0026829,"MEAN_MOTION_DOT":0.00108496,"MEAN_MOTION_DDOT":0},{"OBJECT_NAME":"STARLINK-35442","OBJECT_ID":"2025-253A","EPOCH":"2025-12-04T11:12:12.627648","MEAN_MOTION":15.40680264,"ECCENTRICITY":0.0001636,"INCLINATION":43.0027,"RA_OF_ASC_NODE":33.5509,"ARG_OF_PERICENTER":271.7121,"MEAN_ANOMALY":88.3548,"EPHEMERIS_TYPE":0,"CLASSIFICATION_TYPE":"U","NORAD_CAT_ID":66319,"ELEMENT_SET_NO":999,"REV_AT_EPOCH":564,"BSTAR":0.002125,"MEAN_MOTION_DOT":0.0008945,"MEAN_MOTION_DDOT":0},{"OBJECT_NAME":"STARLINK-34616","OBJECT_ID":"2025-253B","EPOCH":"2025-12-04T18:00:02.000160","MEAN_MOTION":15.44091342,"ECCENTRICITY":0.0001165,"INCLINATION":43.0006,"RA_OF_ASC_NODE":31.5087,"ARG_OF_PERICENTER":271.3128,"MEAN_ANOMALY":31.0064,"EPHEMERIS_TYPE":0,"CLASSIFICATION_TYPE":"U","NORAD_CAT_ID":66320,"ELEMENT_SET_NO":999,"REV_AT_EPOCH":584,"BSTAR":-0.049091,"MEAN_MOTION_DOT":-0.02043192,"MEAN_MOTION_DDOT":0},{"OBJECT_NAME":"STARLINK-34615","OBJECT_ID":"2025-253C","EPOCH":"2025-12-04T18:00:02.000160","MEAN_MOTION":15.50645357,"ECCENTRICITY":0.0001665,"INCLINATION":43.0003,"RA_OF_ASC_NODE":30.6633,"ARG_OF_PERICENTER":280.7282,"MEAN_ANOMALY":6.7619,"EPHEMERIS_TYPE":0,"CLASSIFICATION_TYPE":"U","NORAD_CAT_ID":66321,"ELEMENT_SET_NO":999,"REV_AT_EPOCH":569,"BSTAR":-0.0022769,"MEAN_MOTION_DOT":-0.00132002,"MEAN_MOTION_DDOT":0},{"OBJECT_NAME":"STARLINK-35292","OBJECT_ID":"2025-253D","EPOCH":"2025-12-04T14:00:01.000224","MEAN_MOTION":15.40702534,"ECCENTRICITY":0.00016414,"INCLINATION":43.0007,"RA_OF_ASC_NODE":32.7895,"ARG_OF_PERICENTER":269.5668,"MEAN_ANOMALY":55.0705,"EPHEMERIS_TYPE":0,"CLASSIFICATION_TYPE":"U","NORAD_CAT_ID":66322,"ELEMENT_SET_NO":999,"REV_AT_EPOCH":561,"BSTAR":-0.0036875485,"MEAN_MOTION_DOT":-0.00151343,"MEAN_MOTION_DDOT":0},{"OBJECT_NAME":"STARLINK-35309","OBJECT_ID":"2025-253E","EPOCH":"2025-12-04T11:55:34.293216","MEAN_MOTION":15.50737349,"ECCENTRICITY":0.0003796,"INCLINATION":43.0008,"RA_OF_ASC_NODE":32.9093,"ARG_OF_PERICENTER":268.5168,"MEAN_ANOMALY":91.5257,"EPHEMERIS_TYPE":0,"CLASSIFICATION_TYPE":"U","NORAD_CAT_ID":66323,"ELEMENT_SET_NO":999,"REV_AT_EPOCH":565,"BSTAR":0.0030261,"MEAN_MOTION_DOT":0.00182433,"MEAN_MOTION_DDOT":0},{"OBJECT_NAME":"STARLINK-35506","OBJECT_ID":"2025-253F","EPOCH":"2025-12-03T12:46:12.432576","MEAN_MOTION":15.5059009,"ECCENTRICITY":8.705e-5,"INCLINATION":43.0006,"RA_OF_ASC_NODE":38.5692,"ARG_OF_PERICENTER":276.2742,"MEAN_ANOMALY":83.8019,"EPHEMERIS_TYPE":0,"CLASSIFICATION_TYPE":"U","NORAD_CAT_ID":66324,"ELEMENT_SET_NO":999,"REV_AT_EPOCH":550,"BSTAR":0.00045167229,"MEAN_MOTION_DOT":0.00026255,"MEAN_MOTION_DDOT":0},{"OBJECT_NAME":"STARLINK-35504","OBJECT_ID":"2025-253G","EPOCH":"2025-12-04T18:00:02.000160","MEAN_MOTION":15.4073236,"ECCENTRICITY":9.99e-5,"INCLINATION":43.0005,"RA_OF_ASC_NODE":31.6162,"ARG_OF_PERICENTER":265.7105,"MEAN_ANOMALY":351.481,"EPHEMERIS_TYPE":0,"CLASSIFICATION_TYPE":"U","NORAD_CAT_ID":66325,"ELEMENT_SET_NO":999,"REV_AT_EPOCH":564,"BSTAR":-0.002355,"MEAN_MOTION_DOT":-0.00097532,"MEAN_MOTION_DDOT":0},{"OBJECT_NAME":"STARLINK-35479","OBJECT_ID":"2025-253H","EPOCH":"2025-12-04T15:00:38.013408","MEAN_MOTION":15.50615042,"ECCENTRICITY":0.0001415,"INCLINATION":43.0005,"RA_OF_ASC_NODE":32.1514,"ARG_OF_PERICENTER":287.7439,"MEAN_ANOMALY":72.3267,"EPHEMERIS_TYPE":0,"CLASSIFICATION_TYPE":"U","NORAD_CAT_ID":66326,"ELEMENT_SET_NO":999,"REV_AT_EPOCH":567,"BSTAR":0.001591,"MEAN_MOTION_DOT":0.00094247,"MEAN_MOTION_DDOT":0},{"OBJECT_NAME":"STARLINK-35507","OBJECT_ID":"2025-253J","EPOCH":"2025-12-04T16:00:01.998720","MEAN_MOTION":15.50531081,"ECCENTRICITY":0.0001637,"INCLINATION":43.0007,"RA_OF_ASC_NODE":31.9419,"ARG_OF_PERICENTER":282.8728,"MEAN_ANOMALY":296.3455,"EPHEMERIS_TYPE":0,"CLASSIFICATION_TYPE":"U","NORAD_CAT_ID":66327,"ELEMENT_SET_NO":999,"REV_AT_EPOCH":572,"BSTAR":0.00075641,"MEAN_MOTION_DOT":0.00044208,"MEAN_MOTION_DDOT":0},{"OBJECT_NAME":"STARLINK-35460","OBJECT_ID":"2025-253K","EPOCH":"2025-12-04T18:00:02.000160","MEAN_MOTION":15.40837236,"ECCENTRICITY":0.0001619,"INCLINATION":43.0004,"RA_OF_ASC_NODE":31.5845,"ARG_OF_PERICENTER":273.2457,"MEAN_ANOMALY":356.4689,"EPHEMERIS_TYPE":0,"CLASSIFICATION_TYPE":"U","NORAD_CAT_ID":66328,"ELEMENT_SET_NO":999,"REV_AT_EPOCH":574,"BSTAR":0.0026293,"MEAN_MOTION_DOT":0.00111659,"MEAN_MOTION_DDOT":0},{"OBJECT_NAME":"STARLINK-35505","OBJECT_ID":"2025-253L","EPOCH":"2025-12-04T10:25:17.612832","MEAN_MOTION":15.50609866,"ECCENTRICITY":0.0002419,"INCLINATION":43.0053,"RA_OF_ASC_NODE":33.3018,"ARG_OF_PERICENTER":270.3713,"MEAN_ANOMALY":89.687,"EPHEMERIS_TYPE":0,"CLASSIFICATION_TYPE":"U","NORAD_CAT_ID":66329,"ELEMENT_SET_NO":999,"REV_AT_EPOCH":564,"BSTAR":0.0026928,"MEAN_MOTION_DOT":0.00161104,"MEAN_MOTION_DDOT":0},{"OBJECT_NAME":"STARLINK-35512","OBJECT_ID":"2025-253M","EPOCH":"2025-12-04T18:00:02.000160","MEAN_MOTION":15.40604878,"ECCENTRICITY":9.33e-5,"INCLINATION":43.0005,"RA_OF_ASC_NODE":31.7672,"ARG_OF_PERICENTER":279.2609,"MEAN_ANOMALY":275.7939,"EPHEMERIS_TYPE":0,"CLASSIFICATION_TYPE":"U","NORAD_CAT_ID":66330,"ELEMENT_SET_NO":999,"REV_AT_EPOCH":564,"BSTAR":0.0017568,"MEAN_MOTION_DOT":0.00073561,"MEAN_MOTION_DDOT":0},{"OBJECT_NAME":"STARLINK-35257","OBJECT_ID":"2025-253N","EPOCH":"2025-12-04T11:52:06.845952","MEAN_MOTION":15.50730679,"ECCENTRICITY":0.0003789,"INCLINATION":43.0004,"RA_OF_ASC_NODE":32.8876,"ARG_OF_PERICENTER":251.6624,"MEAN_ANOMALY":108.3824,"EPHEMERIS_TYPE":0,"CLASSIFICATION_TYPE":"U","NORAD_CAT_ID":66331,"ELEMENT_SET_NO":999,"REV_AT_EPOCH":565,"BSTAR":0.0028129,"MEAN_MOTION_DOT":0.00169226,"MEAN_MOTION_DDOT":0},{"OBJECT_NAME":"STARLINK-35322","OBJECT_ID":"2025-253P","EPOCH":"2025-12-04T18:00:02.000160","MEAN_MOTION":15.40741246,"ECCENTRICITY":6.08e-5,"INCLINATION":43.0006,"RA_OF_ASC_NODE":31.5554,"ARG_OF_PERICENTER":275.2547,"MEAN_ANOMALY":6.7559,"EPHEMERIS_TYPE":0,"CLASSIFICATION_TYPE":"U","NORAD_CAT_ID":66332,"ELEMENT_SET_NO":999,"REV_AT_EPOCH":564,"BSTAR":-0.0020735,"MEAN_MOTION_DOT":-0.0008606,"MEAN_MOTION_DDOT":0},{"OBJECT_NAME":"STARLINK-35400","OBJECT_ID":"2025-253Q","EPOCH":"2025-12-04T18:00:02.000160","MEAN_MOTION":15.47020537,"ECCENTRICITY":0.000161,"INCLINATION":43.0007,"RA_OF_ASC_NODE":31.4106,"ARG_OF_PERICENTER":267.7675,"MEAN_ANOMALY":73.0776,"EPHEMERIS_TYPE":0,"CLASSIFICATION_TYPE":"U","NORAD_CAT_ID":66333,"ELEMENT_SET_NO":999,"REV_AT_EPOCH":564,"BSTAR":-0.045601,"MEAN_MOTION_DOT":-0.02094539,"MEAN_MOTION_DDOT":0},{"OBJECT_NAME":"STARLINK-35407","OBJECT_ID":"2025-253R","EPOCH":"2025-12-04T18:00:02.000160","MEAN_MOTION":15.40618025,"ECCENTRICITY":0.0002047,"INCLINATION":43.0005,"RA_OF_ASC_NODE":31.6759,"ARG_OF_PERICENTER":252.3467,"MEAN_ANOMALY":340.0074,"EPHEMERIS_TYPE":0,"CLASSIFICATION_TYPE":"U","NORAD_CAT_ID":66334,"ELEMENT_SET_NO":999,"REV_AT_EPOCH":564,"BSTAR":0.0015874,"MEAN_MOTION_DOT":0.00066405,"MEAN_MOTION_DDOT":0}]
