STARLINK-35798          
1 66292U 25247AD  25338.53857273  .00108496  00000+0  26829-2 0  9992
2 66292  53.1605 275.6708 0002114  82.3294 277.7950 15.39631668  6436
STARLINK-35442          
1 66319U 25253A   25338.46681282  .00089450  00000+0  21250-2 0  9997
2 66319  43.0027  33.5509 0001636 271.7121  88.3548 15.40680264  5642
STARLINK-34616          
1 66320U 25253B   25338.75002315 -.02043192  00000+0 -49091-1 0  9994
2 66320  43.0006  31.5087 0001165 271.3128  31.0064 15.44091342  5847
STARLINK-34615          
1 66321U 25253C   25338.75002315 -.00132002  00000+0 -22769-2 0  9996
2 66321  43.0003  30.6633 0001665 280.7282   6.7619 15.50645357  5698
STARLINK-35292          
1 66322U 25253D   25338.58334491 -.00151343  00000+0 -36875-2 0  9993
2 66322  43.0007  32.7895 0001641 269.5668  55.0705 15.40702534  5618
STARLINK-35309          
1 66323U 25253E   25338.49692469  .00182433  00000+0  30261-2 0  9991
2 66323  43.0008  32.9093 0003796 268.5168  91.5257 15.50737349  5653
STARLINK-35506          
1 66324U 25253F   25337.53208834  .00026255  00000+0  45167-3 0  9996
2 66324  43.0006  38.5692 0000870 276.2742  83.8019 15.50590090  5507
STARLINK-35504          
1 66325U 25253G   25338.75002315 -.00097532  00000+0 -23550-2 0  9997
2 66325  43.0005  31.6162 0000999 265.7105 351.4810 15.40732360  5646
STARLINK-35479          
1 66326U 25253H   25338.62543997  .00094247  00000+0  15910-2 0  9999
2 66326  43.0005  32.1514 0001415 287.7439  72.3267 15.50615042  5678
STARLINK-35507          
1 66327U 25253J   25338.66668980  .00044208  00000+0  75641-3 0  9994
2 66327  43.0007  31.9419 0001637 282.8728 296.3455 15.50531081  5728
STARLINK-35460          
1 66328U 25253K   25338.75002315  .00111659  00000+0  26293-2 0  9992
2 66328  43.0004  31.5845 0001619 273.2457 356.4689 15.40837236  5747
STARLINK-35505          
1 66329U 25253L   25338.43423163  .00161104  00000+0  26928-2 0  9991
2 66329  43.0053  33.3018 0002419 270.3713  89.6870 15.50609866  5649
STARLINK-35512          
1 66330U 25253M   25338.75002315  .00073561  00000+0  17568-2 0  9999
2 66330  43.0005  31.7672 0000933 279.2609 275.7939 15.40604878  5648
STARLINK-35257          
1 66331U 25253N   25338.49452368  .00169226  00000+0  28129-2 0  9997
2 66331  43.0004  32.8876 0003789 251.6624 108.3824 15.50730679  5654
STARLINK-35322          
1 66332U 25253P   25338.75002315 -.00086060  00000+0 -20735-2 0  9991
2 66332  43.0006  31.5554 0000608 275.2547   6.7559 15.40741246  5645
STARLINK-35400          
1 66333U 25253Q   25338.75002315 -.02094539  00000+0 -45601-1 0  9992
2 66333  43.0007  31.4106 0001610 267.7675  73.0776 15.47020537  5649
STARLINK-35407          
1 66334U 25253R   25338.75002315  .00066405  00000+0  15874-2 0  9990
2 66334  43.0005  31.6759 0002047 252.3467 340.0074 15.40618025  5644
